NORAD_CAT_ID,OBJECT_NAME,OBJECT_TYPE,EPOCH,MEAN_MOTION,ECCENTRICITY,INCLINATION,RA_OF_ASC_NODE,ARG_OF_PERICENTER,MEAN_ANOMALY,BSTAR,MEAN_MOTION_DOT,MEAN_MOTION_DDOT,TLE_LINE0,TLE_LINE1,TLE_LINE2,SEMIMAJOR_AXIS,PERIOD,APOGEE,PERIGEE,DECAYED
49449.0,STARLINK-3137,PAYLOAD,2022-04-28 22:00:01,15.08869367,0.0002152,53.2192,72.3143,36.422,41.6969,-0.0023309,-0.00037224,0.0,0 STARLINK-3137,1 49449U 21104AT  22118.91668981 -.00037224  00000-0 -23309-2 0  9999,2 49449  53.2192  72.3143 0002152  36.4220  41.6969 15.08869367 26883,6917.791,95.436,541.144,538.1669999999998,0.0
49449.0,STARLINK-3137,PAYLOAD,2022-04-29 14:00:01,15.08840583,0.0002144,53.2189,69.322,34.4919,66.7601,-0.0018144,-0.0002905,0.0,0 STARLINK-3137,1 49449U 21104AT  22119.58334491 -.00029050  00000-0 -18144-2 0  9998,2 49449  53.2189  69.3220 0002144  34.4919  66.7601 15.08840583  3600,6917.879,95.438,541.227,538.26,0.0
49449.0,STARLINK-3137,PAYLOAD,2022-04-29 22:00:00,15.08823696,0.0002046,53.2191,67.8257,36.5412,76.293,0.00040042,6.088e-05,0.0,0 STARLINK-3137,1 49449U 21104AT  22119.91667824  .00006088  00000-0  40042-3 0  9991,2 49449  53.2191  67.8257 0002046  36.5412  76.2930 15.08823696 27038,6917.93,95.439,541.211,538.38,0.0
49449.0,STARLINK-3137,PAYLOAD,2022-04-30 14:00:01,15.08815867,0.000203,53.2189,64.8335,32.3611,103.6282,0.00014319,1.99e-05,0.0,0 STARLINK-3137,1 49449U 21104AT  22120.58334491  .00001990  00000-0  14319-3 0  9992,2 49449  53.2189  64.8335 0002030  32.3611 103.6282 15.08815867  3587,6917.954000000002,95.439,541.2230000000002,538.415,0.0
49449.0,STARLINK-3137,PAYLOAD,2022-04-30 22:00:00,15.08837616,0.0002031,53.2191,63.3373,34.8142,112.7406,0.00012769,1.744e-05,0.0,0 STARLINK-3137,1 49449U 21104AT  22120.91667824  .00001744  00000-0  12769-3 0  9992,2 49449  53.2191  63.3373 0002031  34.8142 112.7406 15.08837616  3566,6917.888000000001,95.438,541.158,538.3480000000002,0.0
49449.0,STARLINK-3137,PAYLOAD,2022-05-01 06:00:00,15.08824946,0.0002205,53.2191,61.8427,30.2946,128.8576,0.00056953,8.784e-05,0.0,0 STARLINK-3137,1 49449U 21104AT  22121.25001157  .00008784  00000-0  56953-3 0  9995,2 49449  53.2191  61.8427 0002205  30.2946 128.8576 15.08824946 27232,6917.926,95.439,541.317,538.266,0.0
49449.0,STARLINK-3137,PAYLOAD,2022-05-01 14:00:01,15.088347400000002,0.0002049,53.2191,60.3448,32.3696,138.3644,-0.0016132999999999,-0.00025869,0.0,0 STARLINK-3137,1 49449U 21104AT  22121.58334491 -.00025869  00000-0 -16133-2 0  9991,2 49449  53.2191  60.3448 0002049  32.3696 138.3644 15.08834740  3587,6917.896,95.438,541.179,538.344,0.0
49449.0,STARLINK-3137,PAYLOAD,2022-05-01 22:00:01,15.08824376,0.0002131,53.2193,58.8488,37.3107,145.0609,-0.00013089,-2.37e-05,0.0,0 STARLINK-3137,1 49449U 21104AT  22121.91668981 -.00002370  00000-0 -13089-3 0  9992,2 49449  53.2193  58.8488 0002131  37.3107 145.0609 15.08824376  3602,6917.928000000001,95.439,541.2669999999998,538.319,0.0
49449.0,STARLINK-3137,PAYLOAD,2022-05-02 06:00:00,15.08794897,0.0002358,53.2194,57.3542,33.1912,160.6906,0.0038345,0.00061194,0.0,0 STARLINK-3137,1 49449U 21104AT  22122.25001157  .00061194  00000-0  38345-2 0  9994,2 49449  53.2194  57.3542 0002358  33.1912 160.6906 15.08794897 27385,6918.018,95.44,541.515,538.252,0.0
49449.0,STARLINK-3137,PAYLOAD,2022-05-02 14:00:01,15.08831817,0.0002163,53.2195,55.8563,35.4218,170.0296,9.6851e-05,1.253e-05,0.0,0 STARLINK-3137,1 49449U 21104AT  22122.58334491  .00001253  00000-0  96851-4 0  9998,2 49449  53.2195  55.8563 0002163  35.4218 170.0296 15.08831817  3600,6917.905,95.438,541.2669999999998,538.274,0.0
49449.0,STARLINK-3137,PAYLOAD,2022-05-02 22:00:01,15.0883981,0.0002186,53.2197,54.3604,36.9204,180.1763,-0.0015358,-0.00024648,0.0,0 STARLINK-3137,1 49449U 21104AT  22122.91668981 -.00024648  00000-0 -15358-2 0  9995,2 49449  53.2197  54.3604 0002186  36.9204 180.1763 15.08839810 27482,6917.880999999999,95.438,541.258,538.234,0.0
49449.0,STARLINK-3137,PAYLOAD,2022-05-03 14:00:01,15.08826819,0.0002211,53.2201,51.3676,35.7281,204.4737,0.0017997,0.0002846,0.0,0 STARLINK-3137,1 49449U 21104AT  22123.58334491  .00028460  00000-0  17997-2 0  9990,2 49449  53.2201  51.3676 0002211  35.7281 204.4737 15.08826819 27582,6917.920999999999,95.438,541.315,538.256,0.0
49449.0,STARLINK-3137,PAYLOAD,2022-05-03 22:00:00,15.08863887,0.0002249,53.2202,49.8719,38.0241,213.7643,-0.00060004,-9.832e-05,0.0,0 STARLINK-3137,1 49449U 21104AT  22123.91667824 -.00009832  00000-0 -60004-3 0  9998,2 49449  53.2202  49.8719 0002249  38.0241 213.7643 15.08863887  3608,6917.807,95.436,541.2280000000002,538.117,0.0
49449.0,STARLINK-3137,PAYLOAD,2022-05-04 14:00:01,15.08843934,0.0002131,53.2203,46.8789,35.2656,239.7736,0.0011467,0.00018011,0.0,0 STARLINK-3137,1 49449U 21104AT  22124.58334491  .00018011  00000-0  11467-2 0  9998,2 49449  53.2203  46.8789 0002131  35.2656 239.7736 15.08843934 27734,6917.868,95.437,541.2080000000002,538.259,0.0
49449.0,STARLINK-3137,PAYLOAD,2022-05-04 22:00:01,15.08857053,0.0002154,53.2204,45.3832,35.3765,251.3286,-0.0013920999999999,-0.00022386,0.0,0 STARLINK-3137,1 49449U 21104AT  22124.91668981 -.00022386  00000-0 -13921-2 0  9998,2 49449  53.2204  45.3832 0002154  35.3765 251.3286 15.08857053  3602,6917.828,95.436,541.183,538.203,0.0
49449.0,STARLINK-3137,PAYLOAD,2022-05-05 06:00:00,15.08842853,0.000229,53.22,43.8881,30.7246,267.5229,0.00058893,9.098e-05,0.0,0 STARLINK-3137,1 49449U 21104AT  22125.25001157  .00009098  00000-0  58893-3 0  9993,2 49449  53.2200  43.8881 0002290  30.7246 267.5229 15.08842853 27838,6917.871999999999,95.437,541.321,538.1519999999998,0.0
49449.0,STARLINK-3137,PAYLOAD,2022-05-05 14:00:01,15.08816805,0.000206,53.2203,42.3901,33.925,275.9342,0.0019213,0.00030403,0.0,0 STARLINK-3137,1 49449U 21104AT  22125.58334491  .00030403  00000-0  19213-2 0  9995,2 49449  53.2203  42.3901 0002060  33.9250 275.9342 15.08816805  3564,6917.951,95.439,541.241,538.391,0.0
49449.0,STARLINK-3137,PAYLOAD,2022-05-05 22:00:00,15.0884298,0.0002148,53.2203,40.8947,36.0357,285.4027,-0.0021868,-0.00034927,0.0,0 STARLINK-3137,1 49449U 21104AT  22125.91667824 -.00034927  00000-0 -21868-2 0  9997,2 49449  53.2203  40.8947 0002148  36.0357 285.4027 15.08842980 27932,6917.871,95.437,541.222,538.25,0.0
49449.0,STARLINK-3137,PAYLOAD,2022-05-06 14:00:01,15.08816029,0.0002116,53.2198,37.9014,38.9904,305.6121,0.0020122,0.00031861,0.0,0 STARLINK-3137,1 49449U 21104AT  22126.58334491  .00031861  00000-0  20122-2 0  9996,2 49449  53.2198  37.9014 0002116  38.9904 305.6121 15.08816029 28038,6917.954000000002,95.439,541.2819999999998,538.355,0.0
49449.0,STARLINK-3137,PAYLOAD,2022-05-07 14:00:01,15.08808207,0.0002042,53.2193,33.4125,38.7842,340.6089,0.0034345999999999,0.00054751,0.0,0 STARLINK-3137,1 49449U 21104AT  22127.58334491  .00054751  00000-0  34346-2 0  9993,2 49449  53.2193  33.4125 0002042  38.7842 340.6089 15.08808207 28181,6917.978,95.44,541.255,538.43,0.0
49449.0,STARLINK-3137,PAYLOAD,2022-05-07 22:00:00,15.08854994,0.0002177,53.2194,31.9174,38.6179,352.3483,-0.0013079,-0.00021052,0.0,0 STARLINK-3137,1 49449U 21104AT  22127.91667824 -.00021052  00000-0 -13079-2 0  9999,2 49449  53.2194  31.9174 0002177  38.6179 352.3483 15.08854994  3602,6917.835,95.437,541.206,538.194,0.0
49449.0,STARLINK-3137,PAYLOAD,2022-05-08 06:00:00,15.08852427,0.0002271,53.2189,30.4217,34.5049,8.0575,-0.0012926,-0.00020809,0.0,0 STARLINK-3137,1 49449U 21104AT  22128.25001157 -.00020809  00000-0 -12926-2 0  9997,2 49449  53.2189  30.4217 0002271  34.5049   8.0575 15.08852427 28292,6917.842,95.437,541.278,538.136,0.0
49449.0,STARLINK-3137,PAYLOAD,2022-05-08 14:00:01,15.08801158,0.0002037,53.219,28.9235,38.2648,15.9104,0.0033611,0.00053554,0.0,0 STARLINK-3137,1 49449U 21104AT  22128.58334491  .00053554  00000-0  33611-2 0  9998,2 49449  53.2190  28.9235 0002037  38.2648  15.9104 15.08801158  3600,6917.999,95.44,541.273,538.455,0.0
49449.0,STARLINK-3137,PAYLOAD,2022-05-08 22:00:00,15.08848639,0.0002215,53.2191,27.4286,38.2392,27.5062,-0.0012874,-0.00020724,0.0,0 STARLINK-3137,1 49449U 21104AT  22128.91667824 -.00020724  00000-0 -12874-2 0  9997,2 49449  53.2191  27.4286 0002215  38.2392  27.5062 15.08848639  3578,6917.854,95.437,541.251,538.187,0.0
49449.0,STARLINK-3137,PAYLOAD,2022-05-09 06:00:00,15.08842727,0.0002311,53.2189,25.9326,34.9813,42.3601,0.0012728,0.00020028,0.0,0 STARLINK-3137,1 49449U 21104AT  22129.25001157  .00020028  00000-0  12728-2 0  9999,2 49449  53.2189  25.9326 0002311  34.9813  42.3601 15.08842727 28440,6917.871999999999,95.437,541.336,538.138,0.0
49449.0,STARLINK-3137,PAYLOAD,2022-05-09 14:00:01,15.08840693,0.00021,53.2192,24.4345,38.6509,50.3672,0.00060635,9.375e-05,0.0,0 STARLINK-3137,1 49449U 21104AT  22129.58335648  .00009375  00000-0  60635-3 0  9993,2 49449  53.2192  24.4345 0002100  38.6509  50.3672 15.08840693  3572,6917.878000000002,95.438,541.196,538.2909999999998,0.0
49449.0,STARLINK-3137,PAYLOAD,2022-05-09 22:00:00,15.0885152,0.0002243,53.2192,22.9396,37.1637,63.3913,-0.0010316,-0.00016674,0.0,0 STARLINK-3137,1 49449U 21104AT  22129.91667824 -.00016674  00000-0 -10316-2 0  9996,2 49449  53.2192  22.9396 0002243  37.1637  63.3913 15.08851520  3578,6917.845,95.437,541.262,538.159,0.0
49449.0,STARLINK-3137,PAYLOAD,2022-05-10 00:00:00,15.08842641,0.0002302,53.2193,22.5659,36.2825,157.1754,5.3198e-05,5.58e-06,0.0,0 STARLINK-3137,1 49449U 21104AT  22130.00001157  .00000558  00000-0  53198-4 0  9998,2 49449  53.2193  22.5659 0002302  36.2825 157.1754 15.08842641 28556,6917.871999999999,95.437,541.33,538.145,0.0
49449.0,STARLINK-3137,PAYLOAD,2022-05-10 14:00:01,15.08815041,0.0002126,53.2196,19.9455,37.7037,86.0501,0.0014822,0.00023364,0.0,0 STARLINK-3137,1 49449U 21104AT  22130.58334491  .00023364  00000-0  14822-2 0  9990,2 49449  53.2196  19.9455 0002126  37.7037  86.0501 15.08815041  3601,6917.956999999999,95.439,541.2919999999998,538.351,0.0
